$$SOE
2460154.500000000, A.D. 2023-Jul-29 00:00:00.0000, 5.069147844221205E+07, 2.138907493546026E+08, -3.970566673292523E+07,
2460161.500000000, A.D. 2023-Aug-05 00:00:00.0000, 3.357464471279787E+07, 2.192410497710132E+08, -4.118452242670788E+07,
2460168.500000000, A.D. 2023-Aug-12 00:00:00.0000, 1.631558540938243E+07, 2.236650778720592E+08, -4.248938054641797E+07,
2460175.500000000, A.D. 2023-Aug-19 00:00:00.0000, -1.010453327043138E+06, 2.271767136111626E+08, -4.362091742787243E+07,
2460182.500000000, A.D. 2023-Aug-26 00:00:00.0000, -1.833299134494559E+07, 2.297980552180267E+08, -4.458151248652136E+07,
2460189.500000000, A.D. 2023-Sep-02 00:00:00.0000, -3.558729804037435E+07, 2.315580715620692E+08, -4.537501557774097E+07,
2460196.500000000, A.D. 2023-Sep-09 00:00:00.0000, -5.271502294730941E+07, 2.324911979729958E+08, -4.600649421673396E+07,
2460203.500000000, A.D. 2023-Sep-16 00:00:00.0000, -6.966450271749674E+07, 2.326359622481412E+08, -4.648197811225419E+07,
2460210.500000000, A.D. 2023-Sep-23 00:00:00.0000, -8.639079154807073E+07, 2.320337067942672E+08, -4.680821488276964E+07,
2460217.500000000, A.D. 2023-Sep-30 00:00:00.0000, -1.028554716049013E+08, 2.307274515822221E+08, -4.699244665788797E+07,
2460224.500000000, A.D. 2023-Oct-07 00:00:00.0000, -1.190263031250820E+08, 2.287609206384900E+08, -4.704221337675258E+07,
2460231.500000000, A.D. 2023-Oct-14 00:00:00.0000, -1.348767661984260E+08, 2.261777354613118E+08, -4.696518583181112E+07,
2460238.500000000, A.D. 2023-Oct-21 00:00:00.0000, -1.503855365996746E+08, 2.230207714295501E+08, -4.676902875892121E+07,
2460245.500000000, A.D. 2023-Oct-28 00:00:00.0000, -1.655359338815269E+08, 2.193316659118755E+08, -4.646129203670356E+07,
2460252.500000000, A.D. 2023-Nov-04 00:00:00.0000, -1.803153708908928E+08, 2.151504592278576E+08, -4.604932721427990E+07,
2460259.500000000, A.D. 2023-Nov-11 00:00:00.0000, -1.947148244142491E+08, 2.105153479785879E+08, -4.554022614065239E+07,
2460266.500000000, A.D. 2023-Nov-18 00:00:00.0000, -2.087283398302521E+08, 2.054625309396231E+08, -4.494077827768199E+07,
2460273.500000000, A.D. 2023-Nov-25 00:00:00.0000, -2.223525773694673E+08, 2.000261291604638E+08, -4.425744337598812E+07,
2460280.500000000, A.D. 2023-Dec-02 00:00:00.0000, -2.355864035068560E+08, 1.942381639153188E+08, -4.349633647113884E+07,
2460287.500000000, A.D. 2023-Dec-09 00:00:00.0000, -2.484305279937882E+08, 1.881285784085674E+08, -4.266322252896046E+07,
2460294.500000000, A.D. 2023-Dec-16 00:00:00.0000, -2.608871848093165E+08, 1.817252915274302E+08, -4.176351847609036E+07,
2460301.500000000, A.D. 2023-Dec-23 00:00:00.0000, -2.729598539771324E+08, 1.750542747837481E+08, -4.080230069123358E+07,
2460308.500000000, A.D. 2023-Dec-30 00:00:00.0000, -2.846530221627259E+08, 1.681396458948671E+08, -3.978431620636818E+07,
2460315.500000000, A.D. 2024-Jan-06 00:00:00.0000, -2.959719800667210E+08, 1.610037707213300E+08, -3.871399641845338E+07,
2460322.500000000, A.D. 2024-Jan-13 00:00:00.0000, -3.069226496149601E+08, 1.536673672281117E+08, -3.759547278037658E+07,
2460329.500000000, A.D. 2024-Jan-20 00:00:00.0000, -3.175114360118338E+08, 1.461496111532021E+08, -3.643259357708250E+07,
2460336.500000000, A.D. 2024-Jan-27 00:00:00.0000, -3.277451032240940E+08, 1.384682415470961E+08, -3.522894097808212E+07,
2460343.500000000, A.D. 2024-Feb-03 00:00:00.0000, -3.376306701614280E+08, 1.306396634770607E+08, -3.398784798387279E+07,
2460350.500000000, A.D. 2024-Feb-10 00:00:00.0000, -3.471753244308293E+08, 1.226790464109843E+08, -3.271241501009072E+07,
2460357.500000000, A.D. 2024-Feb-17 00:00:00.0000, -3.563863510025070E+08, 1.146004175252810E+08, -3.140552590744428E+07,
2460364.500000000, A.D. 2024-Feb-24 00:00:00.0000, -3.652710735377739E+08, 1.064167495148993E+08, -3.006986327686258E+07,
2460371.500000000, A.D. 2024-Mar-02 00:00:00.0000, -3.738368064234564E+08, 9.814004267881657E+07, -2.870792299700800E+07,
2460378.500000000, A.D. 2024-Mar-09 00:00:00.0000, -3.820908157094227E+08, 8.978140120016311E+07, -2.732202793485289E+07,
2460385.500000000, A.D. 2024-Mar-16 00:00:00.0000, -3.900402871237438E+08, 8.135110392511420E+07, -2.591434084279608E+07,
2460392.500000000, A.D. 2024-Mar-23 00:00:00.0000, -3.976923000464599E+08, 7.285867094237345E+07, -2.448687634780459E+07,
2460399.500000000, A.D. 2024-Mar-30 00:00:00.0000, -4.050538086432963E+08, 6.431292618603829E+07, -2.304151185081005E+07,
2460406.500000000, A.D. 2024-Apr-06 00:00:00.0000, -4.121316290223357E+08, 5.572205298050351E+07, -2.157999766754511E+07,
2460413.500000000, A.D. 2024-Apr-13 00:00:00.0000, -4.189324281128300E+08, 4.709364367034204E+07, -2.010396670659781E+07,
2460420.500000000, A.D. 2024-Apr-20 00:00:00.0000, -4.254627145798130E+08, 3.843474632144047E+07, -1.861494342028203E+07,
2460427.500000000, A.D. 2024-Apr-27 00:00:00.0000, -4.317288327546492E+08, 2.975190823635681E+07, -1.711435197942054E+07,
2460434.500000000, A.D. 2024-May-04 00:00:00.0000, -4.377369590431879E+08, 2.105121587754100E+07, -1.560352378278034E+07,
2460441.500000000, A.D. 2024-May-11 00:00:00.0000, -4.434931001930121E+08, 1.233833138170142E+07, -1.408370437556846E+07,
2460448.500000000, A.D. 2024-May-18 00:00:00.0000, -4.490030930173810E+08, 3.618525956115867E+06, -1.255605982544053E+07,
2460455.500000000, A.D. 2024-May-25 00:00:00.0000, -4.542726052823468E+08, -5.103289598212310E+06, -1.102168259978227E+07,
2460462.500000000, A.D. 2024-Jun-01 00:00:00.0000, -4.593071374723278E+08, -1.382253705925580E+07, -9.481596993268818E+06,
2460469.500000000, A.D. 2024-Jun-08 00:00:00.0000, -4.641120249998985E+08, -2.253494545786244E+07, -7.936764166687737E+06,
2460476.500000000, A.D. 2024-Jun-15 00:00:00.0000, -4.686924403033739E+08, -3.123652750689518E+07, -6.388086823230257E+06,
2460483.500000000, A.D. 2024-Jun-22 00:00:00.0000, -4.730533957065754E+08, -3.992355642599916E+07, -4.836413365751086E+06,
2460490.500000000, A.D. 2024-Jun-29 00:00:00.0000, -4.771997490546448E+08, -4.859254481408564E+07, -3.282541518727832E+06,
2460497.500000000, A.D. 2024-Jul-06 00:00:00.0000, -4.811362093929803E+08, -5.724022788552911E+07, -1.727221886760090E+06,
2460504.500000000, A.D. 2024-Jul-13 00:00:00.0000, -4.848673406660115E+08, -6.586354810305943E+07, -1.711614225195348E+05,
2460511.500000000, A.D. 2024-Jul-20 00:00:00.0000, -4.883975653588998E+08, -7.445963992907843E+07, 1.384973448913790E+06,
2460518.500000000, A.D. 2024-Jul-27 00:00:00.0000, -4.917311686879544E+08, -8.302581553769846E+07, 2.940554009736951E+06,
2460525.500000000, A.D. 2024-Aug-03 00:00:00.0000, -4.948723030269438E+08, -9.155955175504081E+07, 4.494986657794271E+06,
2460532.500000000, A.D. 2024-Aug-10 00:00:00.0000, -4.978249923707137E+08, -1.000584781334875E+08, 6.047710510102659E+06,
2460539.500000000, A.D. 2024-Aug-17 00:00:00.0000, -5.005931367612892E+08, -1.085203660480769E+08, 7.598195182518695E+06,
2460546.500000000, A.D. 2024-Aug-24 00:00:00.0000, -5.031805166259668E+08, -1.169431187558076E+08, 9.145938726023212E+06,
2460553.500000000, A.D. 2024-Aug-31 00:00:00.0000, -5.055907968939047E+08, -1.253247624059595E+08, 1.069046569001589E+07,
2460560.500000000, A.D. 2024-Sep-07 00:00:00.0000, -5.078275305125111E+08, -1.336634378088287E+08, 1.223132527655549E+07,
2460567.500000000, A.D. 2024-Sep-14 00:00:00.0000, -5.098941612691480E+08, -1.419573919067160E+08, 1.376808964733621E+07,
2460574.500000000, A.D. 2024-Sep-21 00:00:00.0000, -5.117940279407255E+08, -1.502049684795265E+08, 1.530035259245787E+07,
2460581.500000000, A.D. 2024-Sep-28 00:00:00.0000, -5.135303702551864E+08, -1.584046012623611E+08, 1.682772833216792E+07,
2460588.500000000, A.D. 2024-Oct-05 00:00:00.0000, -5.151063329934805E+08, -1.665548094268210E+08, 1.834985010634420E+07,
2460595.500000000, A.D. 2024-Oct-12 00:00:00.0000, -5.165249685906556E+08, -1.746541924026681E+08, 1.986636882040572E+07,
2460602.500000000, A.D. 2024-Oct-19 00:00:00.0000, -5.177892399851662E+08, -1.827014242718575E+08, 2.137695187879057E+07,
2460609.500000000, A.D. 2024-Oct-26 00:00:00.0000, -5.189020237484924E+08, -1.906952485016896E+08, 2.288128213672306E+07,
2460616.500000000, A.D. 2024-Nov-02 00:00:00.0000, -5.198661132388666E+08, -1.986344731338322E+08, 2.437905692840622E+07,
2460623.500000000, A.D. 2024-Nov-09 00:00:00.0000, -5.206842216842964E+08, -2.065179663793204E+08, 2.586998715891364E+07,
2460630.500000000, A.D. 2024-Nov-16 00:00:00.0000, -5.213589851710699E+08, -2.143446525924707E+08, 2.735379645236321E+07,
2460637.500000000, A.D. 2024-Nov-23 00:00:00.0000, -5.218929654931998E+08, -2.221135086491288E+08, 2.883022034335887E+07,
2460644.500000000, A.D. 2024-Nov-30 00:00:00.0000, -5.222886526572031E+08, -2.298235607495266E+08, 3.029900548487906E+07,
2460651.500000000, A.D. 2024-Dec-07 00:00:00.0000, -5.225484666256801E+08, -2.374738812046494E+08, 3.175990886465339E+07,
2460658.500000000, A.D. 2024-Dec-14 00:00:00.0000, -5.226747589912157E+08, -2.450635839633898E+08, 3.321269718967585E+07,
2460665.500000000, A.D. 2024-Dec-21 00:00:00.0000, -5.226698169021955E+08, -2.525918201044189E+08, 3.465714654687251E+07,
2460672.500000000, A.D. 2024-Dec-28 00:00:00.0000, -5.225358672719019E+08, -2.600577762449968E+08, 3.609304191361347E+07,
2460679.500000000, A.D. 2025-Jan-04 00:00:00.0000, -5.222750786776905E+08, -2.674606734761652E+08, 3.752017647149900E+07,
2460686.500000000, A.D. 2025-Jan-11 00:00:00.0000, -5.218895627746251E+08, -2.747997651508514E+08, 3.893835102377038E+07,
2460693.500000000, A.D. 2025-Jan-18 00:00:00.0000, -5.213813761432543E+08, -2.820743344315450E+08, 4.034737352316843E+07,
2460700.500000000, A.D. 2025-Jan-25 00:00:00.0000, -5.207525223311176E+08, -2.892836920613526E+08, 4.174705864713456E+07,
2460707.500000000, A.D. 2025-Feb-01 00:00:00.0000, -5.200049539018455E+08, -2.964271743786970E+08, 4.313722739874564E+07,
2460714.500000000, A.D. 2025-Feb-08 00:00:00.0000, -5.191405744367986E+08, -3.035041415467774E+08, 4.451770672803062E+07,
$$EOE